STARLINK-36844          
1 68117U 26044S   26076.58335648 -.02177647  12828-2 -66320-2 0  9990
2 68117  97.2798  37.0831 0001697 106.6758 149.2598 15.92158050  2629
STARLINK-36789          
1 68118U 26044T   26076.58335648 -.02210940  13204-2 -67360-2 0  9999
2 68118  97.2798  37.0856 0001677 103.9705 157.3675 15.92153690  2628
STARLINK-36850          
1 68119U 26044U   26076.58335648 -.02212405  13238-2 -66971-2 0  9992
2 68119  97.2797  37.0870 0001682 105.6028 158.9536 15.92279245  2625
STARLINK-36868          
1 68120U 26044V   26076.58335648 -.02228559  13438-2 -67120-2 0  9990
2 68120  97.2792  37.0888 0001602  99.6959 168.6548 15.92378975  2629
STARLINK-36855          
1 68121U 26044W   26076.58335648 -.02230574  13477-2 -66804-2 0  9992
2 68121  97.2792  37.0907 0001677 108.2427 163.6551 15.92487886  2622
STARLINK-36366          
1 68122U 26044X   26076.58335648 -.02226794  13452-2 -66251-2 0  9991
2 68122  97.2790  37.0917 0001616 104.5776 170.4125 15.92616000  2671
STARLINK-36922          
1 68123U 26044Y   26076.58335648 -.02227752  13498-2 -65443-2 0  9999
2 68123  97.2790  37.0947 0001808 116.8559 164.6615 15.92860670  2676
STARLINK-36938          
1 68124U 26044Z   26076.58335648 -.02236588  13622-2 -65237-2 0  9997
2 68124  97.2789  37.0959 0001576 103.7320 180.8174 15.92999258  2676
STARLINK-36839          
1 68125U 26044AA  26076.58335648 -.02236629  13582-2 -66153-2 0  9997
2 68125  97.2792  37.0935 0001609 106.1407 172.3714 15.92730675  2622
ECHOSTAR 25             
1 68126U 26045A   26074.15172541  .00001699  00000+0  49012-3 0  9998
2 68126  26.8649  68.3559 6668368 178.8166 184.5786  3.07256928   186
ICOR SV                 
1 68127U 26046A   26072.90953491  .00482503  92133-4  10434-2 0  9997
2 68127 123.0797 224.1306 0140888 188.2572 171.6170 15.82606913   290
FIREFLY ALPHA R/B       
1 68128U 26046B   26076.21604891  .00031508  00000+0  44338-3 0  9996
2 68128 123.0908 238.3417 0013992 352.2946   7.7898 15.56331915   810
GUOWANG GROUP 20 OBJECT*
1 68129U 26047A   26076.63365288 -.00000147  00000+0  32837-5 0  9997
2 68129  50.0054  38.0694 0008911 278.0062  81.9832 14.05638295   684
GUOWANG GROUP 20 OBJECT*
1 68130U 26047B   26076.84651153 -.00000144  00000+0  48247-5 0  9990
2 68130  50.0042  37.1958 0007547 273.9515  86.0527 14.05760932   701
GUOWANG GROUP 20 OBJECT*
1 68131U 26047C   26076.63309534 -.00000145  00000+0  41288-5 0  9990
2 68131  50.0038  38.0628 0008114 280.4312  79.5679 14.05810325   684
GUOWANG GROUP 20 OBJECT*
1 68132U 26047D   26076.84608227 -.00000143  00000+0  55525-5 0  9992
2 68132  50.0077  37.1964 0008434 285.1548  74.8424 14.05881446   700
