[{"OBJECT_NAME":"STARLINK-36844","OBJECT_ID":"2026-044S","EPOCH":"2026-03-17T14:00:01.999872","MEAN_MOTION":15.9215805,"ECCENTRICITY":0.00016978,"INCLINATION":97.2798,"RA_OF_ASC_NODE":37.0831,"ARG_OF_PERICENTER":106.6758,"MEAN_ANOMALY":149.2598,"EPHEMERIS_TYPE":0,"CLASSIFICATION_TYPE":"U","NORAD_CAT_ID":68117,"ELEMENT_SET_NO":999,"REV_AT_EPOCH":262,"BSTAR":-0.0066320227,"MEAN_MOTION_DOT":-0.02177647,"MEAN_MOTION_DDOT":0.0012827984},{"OBJECT_NAME":"STARLINK-36789","OBJECT_ID":"2026-044T","EPOCH":"2026-03-17T14:00:01.999872","MEAN_MOTION":15.9215369,"ECCENTRICITY":0.00016777,"INCLINATION":97.2798,"RA_OF_ASC_NODE":37.0856,"ARG_OF_PERICENTER":103.9705,"MEAN_ANOMALY":157.3675,"EPHEMERIS_TYPE":0,"CLASSIFICATION_TYPE":"U","NORAD_CAT_ID":68118,"ELEMENT_SET_NO":999,"REV_AT_EPOCH":262,"BSTAR":-0.0067360169,"MEAN_MOTION_DOT":-0.0221094,"MEAN_MOTION_DDOT":0.0013203702},{"OBJECT_NAME":"STARLINK-36850","OBJECT_ID":"2026-044U","EPOCH":"2026-03-17T14:00:01.999872","MEAN_MOTION":15.92279245,"ECCENTRICITY":0.00016825,"INCLINATION":97.2797,"RA_OF_ASC_NODE":37.087,"ARG_OF_PERICENTER":105.6028,"MEAN_ANOMALY":158.9536,"EPHEMERIS_TYPE":0,"CLASSIFICATION_TYPE":"U","NORAD_CAT_ID":68119,"ELEMENT_SET_NO":999,"REV_AT_EPOCH":262,"BSTAR":-0.0066971113,"MEAN_MOTION_DOT":-0.02212405,"MEAN_MOTION_DDOT":0.0013238155},{"OBJECT_NAME":"STARLINK-36868","OBJECT_ID":"2026-044V","EPOCH":"2026-03-17T14:00:01.999872","MEAN_MOTION":15.92378975,"ECCENTRICITY":0.00016028,"INCLINATION":97.2792,"RA_OF_ASC_NODE":37.0888,"ARG_OF_PERICENTER":99.6959,"MEAN_ANOMALY":168.6548,"EPHEMERIS_TYPE":0,"CLASSIFICATION_TYPE":"U","NORAD_CAT_ID":68120,"ELEMENT_SET_NO":999,"REV_AT_EPOCH":262,"BSTAR":-0.0067120118,"MEAN_MOTION_DOT":-0.02228559,"MEAN_MOTION_DDOT":0.0013437749},{"OBJECT_NAME":"STARLINK-36855","OBJECT_ID":"2026-044W","EPOCH":"2026-03-17T14:00:01.999872","MEAN_MOTION":15.92487886,"ECCENTRICITY":0.00016776,"INCLINATION":97.2792,"RA_OF_ASC_NODE":37.0907,"ARG_OF_PERICENTER":108.2427,"MEAN_ANOMALY":163.6551,"EPHEMERIS_TYPE":0,"CLASSIFICATION_TYPE":"U","NORAD_CAT_ID":68121,"ELEMENT_SET_NO":999,"REV_AT_EPOCH":262,"BSTAR":-0.0066804197,"MEAN_MOTION_DOT":-0.02230574,"MEAN_MOTION_DDOT":0.0013476724},{"OBJECT_NAME":"STARLINK-36366","OBJECT_ID":"2026-044X","EPOCH":"2026-03-17T14:00:01.999872","MEAN_MOTION":15.92616,"ECCENTRICITY":0.00016163,"INCLINATION":97.279,"RA_OF_ASC_NODE":37.0917,"ARG_OF_PERICENTER":104.5776,"MEAN_ANOMALY":170.4125,"EPHEMERIS_TYPE":0,"CLASSIFICATION_TYPE":"U","NORAD_CAT_ID":68122,"ELEMENT_SET_NO":999,"REV_AT_EPOCH":267,"BSTAR":-0.0066250535,"MEAN_MOTION_DOT":-0.02226794,"MEAN_MOTION_DDOT":0.0013451666},{"OBJECT_NAME":"STARLINK-36922","OBJECT_ID":"2026-044Y","EPOCH":"2026-03-17T14:00:01.999872","MEAN_MOTION":15.9286067,"ECCENTRICITY":0.00018088,"INCLINATION":97.279,"RA_OF_ASC_NODE":37.0947,"ARG_OF_PERICENTER":116.8559,"MEAN_ANOMALY":164.6615,"EPHEMERIS_TYPE":0,"CLASSIFICATION_TYPE":"U","NORAD_CAT_ID":68123,"ELEMENT_SET_NO":999,"REV_AT_EPOCH":267,"BSTAR":-0.0065443003,"MEAN_MOTION_DOT":-0.02227752,"MEAN_MOTION_DDOT":0.001349835},{"OBJECT_NAME":"STARLINK-36938","OBJECT_ID":"2026-044Z","EPOCH":"2026-03-17T14:00:01.999872","MEAN_MOTION":15.92999258,"ECCENTRICITY":0.00015765,"INCLINATION":97.2789,"RA_OF_ASC_NODE":37.0959,"ARG_OF_PERICENTER":103.732,"MEAN_ANOMALY":180.8174,"EPHEMERIS_TYPE":0,"CLASSIFICATION_TYPE":"U","NORAD_CAT_ID":68124,"ELEMENT_SET_NO":999,"REV_AT_EPOCH":267,"BSTAR":-0.0065236743,"MEAN_MOTION_DOT":-0.02236588,"MEAN_MOTION_DDOT":0.0013621508},{"OBJECT_NAME":"STARLINK-36839","OBJECT_ID":"2026-044AA","EPOCH":"2026-03-17T14:00:01.999872","MEAN_MOTION":15.92730675,"ECCENTRICITY":0.00016098,"INCLINATION":97.2792,"RA_OF_ASC_NODE":37.0935,"ARG_OF_PERICENTER":106.1407,"MEAN_ANOMALY":172.3714,"EPHEMERIS_TYPE":0,"CLASSIFICATION_TYPE":"U","NORAD_CAT_ID":68125,"ELEMENT_SET_NO":999,"REV_AT_EPOCH":262,"BSTAR":-0.0066152506,"MEAN_MOTION_DOT":-0.02236629,"MEAN_MOTION_DDOT":0.0013582349},{"OBJECT_NAME":"ECHOSTAR 25","OBJECT_ID":"2026-045A","EPOCH":"2026-03-15T03:38:29.075424","MEAN_MOTION":3.07256928,"ECCENTRICITY":0.66683682,"INCLINATION":26.8649,"RA_OF_ASC_NODE":68.3559,"ARG_OF_PERICENTER":178.8166,"MEAN_ANOMALY":184.5786,"EPHEMERIS_TYPE":0,"CLASSIFICATION_TYPE":"U","NORAD_CAT_ID":68126,"ELEMENT_SET_NO":999,"REV_AT_EPOCH":18,"BSTAR":0.00049011704,"MEAN_MOTION_DOT":1.699e-5,"MEAN_MOTION_DDOT":0},{"OBJECT_NAME":"ICOR SV","OBJECT_ID":"2026-046A","EPOCH":"2026-03-13T21:49:43.816224","MEAN_MOTION":15.82606913,"ECCENTRICITY":0.0140888,"INCLINATION":123.0797,"RA_OF_ASC_NODE":224.1306,"ARG_OF_PERICENTER":188.2572,"MEAN_ANOMALY":171.617,"EPHEMERIS_TYPE":0,"CLASSIFICATION_TYPE":"U","NORAD_CAT_ID":68127,"ELEMENT_SET_NO":999,"REV_AT_EPOCH":29,"BSTAR":0.0010434,"MEAN_MOTION_DOT":0.00482503,"MEAN_MOTION_DDOT":9.2133e-5},{"OBJECT_NAME":"FIREFLY ALPHA R/B","OBJECT_ID":"2026-046B","EPOCH":"2026-03-17T05:11:06.625824","MEAN_MOTION":15.56331915,"ECCENTRICITY":0.0013992,"INCLINATION":123.0908,"RA_OF_ASC_NODE":238.3417,"ARG_OF_PERICENTER":352.2946,"MEAN_ANOMALY":7.7898,"EPHEMERIS_TYPE":0,"CLASSIFICATION_TYPE":"U","NORAD_CAT_ID":68128,"ELEMENT_SET_NO":999,"REV_AT_EPOCH":81,"BSTAR":0.00044337802,"MEAN_MOTION_DOT":0.00031508,"MEAN_MOTION_DDOT":0},{"OBJECT_NAME":"GUOWANG GROUP 20 OBJECT A","OBJECT_ID":"2026-047A","EPOCH":"2026-03-17T15:12:27.608832","MEAN_MOTION":14.05638295,"ECCENTRICITY":0.00089115,"INCLINATION":50.0054,"RA_OF_ASC_NODE":38.0694,"ARG_OF_PERICENTER":278.0062,"MEAN_ANOMALY":81.9832,"EPHEMERIS_TYPE":0,"CLASSIFICATION_TYPE":"U","NORAD_CAT_ID":68129,"ELEMENT_SET_NO":999,"REV_AT_EPOCH":68,"BSTAR":3.283659e-6,"MEAN_MOTION_DOT":-1.47e-6,"MEAN_MOTION_DDOT":0},{"OBJECT_NAME":"GUOWANG GROUP 20 OBJECT B","OBJECT_ID":"2026-047B","EPOCH":"2026-03-17T20:18:58.596192","MEAN_MOTION":14.05760932,"ECCENTRICITY":0.0007547,"INCLINATION":50.0042,"RA_OF_ASC_NODE":37.1958,"ARG_OF_PERICENTER":273.9515,"MEAN_ANOMALY":86.0527,"EPHEMERIS_TYPE":0,"CLASSIFICATION_TYPE":"U","NORAD_CAT_ID":68130,"ELEMENT_SET_NO":999,"REV_AT_EPOCH":70,"BSTAR":4.8247e-6,"MEAN_MOTION_DOT":-1.44e-6,"MEAN_MOTION_DDOT":0},{"OBJECT_NAME":"GUOWANG GROUP 20 OBJECT C","OBJECT_ID":"2026-047C","EPOCH":"2026-03-17T15:11:39.437376","MEAN_MOTION":14.05810325,"ECCENTRICITY":0.00081141,"INCLINATION":50.0038,"RA_OF_ASC_NODE":38.0628,"ARG_OF_PERICENTER":280.4312,"MEAN_ANOMALY":79.5679,"EPHEMERIS_TYPE":0,"CLASSIFICATION_TYPE":"U","NORAD_CAT_ID":68131,"ELEMENT_SET_NO":999,"REV_AT_EPOCH":68,"BSTAR":4.128762e-6,"MEAN_MOTION_DOT":-1.45e-6,"MEAN_MOTION_DDOT":0},{"OBJECT_NAME":"GUOWANG GROUP 20 OBJECT D","OBJECT_ID":"2026-047D","EPOCH":"2026-03-17T20:18:21.508128","MEAN_MOTION":14.05881446,"ECCENTRICITY":0.0008434,"INCLINATION":50.0077,"RA_OF_ASC_NODE":37.1964,"ARG_OF_PERICENTER":285.1548,"MEAN_ANOMALY":74.8424,"EPHEMERIS_TYPE":0,"CLASSIFICATION_TYPE":"U","NORAD_CAT_ID":68132,"ELEMENT_SET_NO":999,"REV_AT_EPOCH":70,"BSTAR":5.5525e-6,"MEAN_MOTION_DOT":-1.43e-6,"MEAN_MOTION_DDOT":0}]
